CCSDS_OMM_VERS = 2.0
CREATION_DATE  = 
ORIGINATOR     = 

OBJECT_NAME    = SILVERSAT
OBJECT_ID      = 1998-067XV
CENTER_NAME    = EARTH
REF_FRAME      = TEME
TIME_SYSTEM    = UTC
MEAN_ELEMENT_THEORY = SGP/SGP4

EPOCH          = 2026-02-09T17:15:28.616544
MEAN_MOTION    = 15.63320191
ECCENTRICITY   = .00024031
INCLINATION    = 51.6267
RA_OF_ASC_NODE = 207.1313
ARG_OF_PERICENTER = 252.0284
MEAN_ANOMALY   = 108.0449

EPHEMERIS_TYPE = 0
CLASSIFICATION_TYPE = U
NORAD_CAT_ID   = 66909
ELEMENT_SET_NO = 999
REV_AT_EPOCH   = 1080
BSTAR          = .13285199E-2
MEAN_MOTION_DOT = .125958E-2
MEAN_MOTION_DDOT = 0

CCSDS_OMM_VERS = 2.0
CREATION_DATE  = 
ORIGINATOR     = 

OBJECT_NAME    = ISS OBJECT XW
OBJECT_ID      = 1998-067XW
CENTER_NAME    = EARTH
REF_FRAME      = TEME
TIME_SYSTEM    = UTC
MEAN_ELEMENT_THEORY = SGP/SGP4

EPOCH          = 2026-02-09T16:06:53.258400
MEAN_MOTION    = 15.61822223
ECCENTRICITY   = .00011904
INCLINATION    = 51.6257
RA_OF_ASC_NODE = 207.5584
ARG_OF_PERICENTER = 285.1610
MEAN_ANOMALY   = 74.9252

EPHEMERIS_TYPE = 0
CLASSIFICATION_TYPE = U
NORAD_CAT_ID   = 66910
ELEMENT_SET_NO = 999
REV_AT_EPOCH   = 1079
BSTAR          = .11031161E-2
MEAN_MOTION_DOT = .98201E-3
MEAN_MOTION_DDOT = 0

CCSDS_OMM_VERS = 2.0
CREATION_DATE  = 
ORIGINATOR     = 

OBJECT_NAME    = ISS OBJECT XX
OBJECT_ID      = 1998-067XX
CENTER_NAME    = EARTH
REF_FRAME      = TEME
TIME_SYSTEM    = UTC
MEAN_ELEMENT_THEORY = SGP/SGP4

EPOCH          = 2026-02-09T18:03:21.045024
MEAN_MOTION    = 15.64618808
ECCENTRICITY   = .00028011
INCLINATION    = 51.6234
RA_OF_ASC_NODE = 206.6102
ARG_OF_PERICENTER = 282.1139
MEAN_ANOMALY   = 77.9542

EPHEMERIS_TYPE = 0
CLASSIFICATION_TYPE = U
NORAD_CAT_ID   = 66911
ELEMENT_SET_NO = 999
REV_AT_EPOCH   = 1080
BSTAR          = .14448482E-2
MEAN_MOTION_DOT = .144596E-2
MEAN_MOTION_DDOT = 0

CCSDS_OMM_VERS = 2.0
CREATION_DATE  = 
ORIGINATOR     = 

OBJECT_NAME    = ISS OBJECT XY
OBJECT_ID      = 1998-067XY
CENTER_NAME    = EARTH
REF_FRAME      = TEME
TIME_SYSTEM    = UTC
MEAN_ELEMENT_THEORY = SGP/SGP4

EPOCH          = 2026-02-09T16:07:25.438080
MEAN_MOTION    = 15.58897163
ECCENTRICITY   = .00006621
INCLINATION    = 51.6282
RA_OF_ASC_NODE = 208.3184
ARG_OF_PERICENTER = 174.8673
MEAN_ANOMALY   = 185.2327

EPHEMERIS_TYPE = 0
CLASSIFICATION_TYPE = U
NORAD_CAT_ID   = 66912
ELEMENT_SET_NO = 999
REV_AT_EPOCH   = 1077
BSTAR          = .90522211E-3
MEAN_MOTION_DOT = .71681E-3
MEAN_MOTION_DDOT = 0

CCSDS_OMM_VERS = 2.0
CREATION_DATE  = 
ORIGINATOR     = 

OBJECT_NAME    = ISS OBJECT XZ
OBJECT_ID      = 1998-067XZ
CENTER_NAME    = EARTH
REF_FRAME      = TEME
TIME_SYSTEM    = UTC
MEAN_ELEMENT_THEORY = SGP/SGP4

EPOCH          = 2026-02-09T22:50:10.612608
MEAN_MOTION    = 15.49577768
ECCENTRICITY   = .0010941
INCLINATION    = 51.6304
RA_OF_ASC_NODE = 209.4325
ARG_OF_PERICENTER = 97.0225
MEAN_ANOMALY   = 263.2008

EPHEMERIS_TYPE = 0
CLASSIFICATION_TYPE = U
NORAD_CAT_ID   = 67683
ELEMENT_SET_NO = 999
REV_AT_EPOCH   = 48
BSTAR          = .70823E-3
MEAN_MOTION_DOT = .3965E-3
MEAN_MOTION_DDOT = 0

CCSDS_OMM_VERS = 2.0
CREATION_DATE  = 
ORIGINATOR     = 

OBJECT_NAME    = GXIBA-1
OBJECT_ID      = 1998-067YA
CENTER_NAME    = EARTH
REF_FRAME      = TEME
TIME_SYSTEM    = UTC
MEAN_ELEMENT_THEORY = SGP/SGP4

EPOCH          = 2026-02-09T22:48:10.547712
MEAN_MOTION    = 15.50115097
ECCENTRICITY   = .0012841
INCLINATION    = 51.6304
RA_OF_ASC_NODE = 209.4241
ARG_OF_PERICENTER = 92.4624
MEAN_ANOMALY   = 267.7835

EPHEMERIS_TYPE = 0
CLASSIFICATION_TYPE = U
NORAD_CAT_ID   = 67684
ELEMENT_SET_NO = 999
REV_AT_EPOCH   = 48
BSTAR          = .1191E-2
MEAN_MOTION_DOT = .68596E-3
MEAN_MOTION_DDOT = 0

CCSDS_OMM_VERS = 2.0
CREATION_DATE  = 
ORIGINATOR     = 

OBJECT_NAME    = CORAL
OBJECT_ID      = 1998-067YB
CENTER_NAME    = EARTH
REF_FRAME      = TEME
TIME_SYSTEM    = UTC
MEAN_ELEMENT_THEORY = SGP/SGP4

EPOCH          = 2026-02-09T22:49:43.734432
MEAN_MOTION    = 15.49684717
ECCENTRICITY   = .0012869
INCLINATION    = 51.6304
RA_OF_ASC_NODE = 209.4309
ARG_OF_PERICENTER = 92.5754
MEAN_ANOMALY   = 267.6708

EPHEMERIS_TYPE = 0
CLASSIFICATION_TYPE = U
NORAD_CAT_ID   = 67685
ELEMENT_SET_NO = 999
REV_AT_EPOCH   = 48
BSTAR          = .7895E-3
MEAN_MOTION_DOT = .44489E-3
MEAN_MOTION_DDOT = 0

CCSDS_OMM_VERS = 2.0
CREATION_DATE  = 
ORIGINATOR     = 

OBJECT_NAME    = ISS OBJECT YC
OBJECT_ID      = 1998-067YC
CENTER_NAME    = EARTH
REF_FRAME      = TEME
TIME_SYSTEM    = UTC
MEAN_ELEMENT_THEORY = SGP/SGP4

EPOCH          = 2026-02-09T21:16:34.703328
MEAN_MOTION    = 15.49776266
ECCENTRICITY   = .0007758
INCLINATION    = 51.6307
RA_OF_ASC_NODE = 209.7494
ARG_OF_PERICENTER = 69.9375
MEAN_ANOMALY   = 290.2448

EPHEMERIS_TYPE = 0
CLASSIFICATION_TYPE = U
NORAD_CAT_ID   = 67686
ELEMENT_SET_NO = 999
REV_AT_EPOCH   = 47
BSTAR          = .84454E-3
MEAN_MOTION_DOT = .477E-3
MEAN_MOTION_DDOT = 0

CCSDS_OMM_VERS = 2.0
CREATION_DATE  = 
ORIGINATOR     = 

OBJECT_NAME    = LEOPARD
OBJECT_ID      = 1998-067YD
CENTER_NAME    = EARTH
REF_FRAME      = TEME
TIME_SYSTEM    = UTC
MEAN_ELEMENT_THEORY = SGP/SGP4

EPOCH          = 2026-02-09T22:49:54.738336
MEAN_MOTION    = 15.49641437
ECCENTRICITY   = .0007895
INCLINATION    = 51.6308
RA_OF_ASC_NODE = 209.4316
ARG_OF_PERICENTER = 71.1896
MEAN_ANOMALY   = 288.9948

EPHEMERIS_TYPE = 0
CLASSIFICATION_TYPE = U
NORAD_CAT_ID   = 67687
ELEMENT_SET_NO = 999
REV_AT_EPOCH   = 40
BSTAR          = .75238E-3
MEAN_MOTION_DOT = .42213E-3
MEAN_MOTION_DDOT = 0

CCSDS_OMM_VERS = 2.0
CREATION_DATE  = 
ORIGINATOR     = 

OBJECT_NAME    = ISS OBJECT YE
OBJECT_ID      = 1998-067YE
CENTER_NAME    = EARTH
REF_FRAME      = TEME
TIME_SYSTEM    = UTC
MEAN_ELEMENT_THEORY = SGP/SGP4

EPOCH          = 2026-02-09T21:16:38.688096
MEAN_MOTION    = 15.49740553
ECCENTRICITY   = .0007774
INCLINATION    = 51.6309
RA_OF_ASC_NODE = 209.7496
ARG_OF_PERICENTER = 69.6595
MEAN_ANOMALY   = 290.5228

EPHEMERIS_TYPE = 0
CLASSIFICATION_TYPE = U
NORAD_CAT_ID   = 67688
ELEMENT_SET_NO = 999
REV_AT_EPOCH   = 39
BSTAR          = .83022E-3
MEAN_MOTION_DOT = .46819E-3
MEAN_MOTION_DDOT = 0

